network,siteId,siteName,status,startDate,stopDate,county,state,latitude,longitude,elevation,stateName,siteClass
NTN,AB32,"Fort Mackay",A,2016-09-13,,"Regional Municipality of Wood Buffalo",AB,57.1894,-111.6406,265,Alberta," "
NTN,AB34,"Stony Mountain",A,2019-04-24,,"Regional Municipality of Wood Buffalo",AB,55.6214,-111.1727,673,Alberta," "
NTN,AB35,"Elk Island",A,2023-01-03,,"Improvement District No. 13 (Elk Island)",AB,53.6824,-112.8680,711,Alberta,I
NTN,AB36,Wapasu,A,2019-11-05,,"Regional Municipality of Wood Buffalo",AB,57.2592,-111.0386,491,Alberta,I
NTN,AB37,"Calling Lake",A,2023-10-24,,"Municipal District Opportunity No. 17",AB,55.1664,-113.2274,620,Alberta,I
NTN,AB38,"Cold Lake",A,2024-03-26,,"Municipal District of Bonnyville",AB,54.4597,-110.1241,530,Alberta,R
NTN,AB39,"Dickson Dam",A,2024-03-26,,"Red Deer County",AB,52.0551,-114.2068,940,Alberta,I
NTN,AB40,Beaverlodge,A,2024-03-26,,"County of Grande Prairie No. 1",AB,55.1963,-119.3968,750,Alberta,I
NTN,AB41,Kananaskis,A,2024-03-26,,"Kananaskis Improvement District",AB,51.0278,-115.0341,220,Alberta," "
NTN,AB42,"Fort Chipewyan",A,2024-03-26,,"Regional Municipality of Wood Buffalo",AB,55.1664,-113.2275,220,Alberta,I
NTN,AK01,"Poker Creek",A,1992-12-29,,"Fairbanks North Star",AK,65.1550,-147.4910,230,Alaska,I
NTN,AK02,Juneau,A,2004-06-22,,Juneau,AK,58.5139,-134.7843,25,Alaska,I
NTN,AK03,"Denali National Park",A,1980-06-17,,Denali,AK,63.7232,-148.9676,661,Alaska,I
NTN,AK96,"Toolik Field Station",A,2017-10-12,,"North Slope Borough",AK,68.6257,-149.6069,730,Alaska," "
NTN,AK97,"Katmai National Park - King Salmon",A,2009-11-02,,"Bristol Bay",AK,58.6794,-156.6664,50,Alaska,I
NTN,AL10,"Black Belt Research & Extension Center",A,1983-08-31,,Dallas,AL,32.4583,-87.2422,58,Alabama,I
NTN,AL99,"Sand Mountain Research & Extension Center",A,1984-10-02,,DeKalb,AL,34.2886,-85.9699,349,Alabama,R
NTN,AR02,"Warren 2WSW",A,1982-05-25,,Bradley,AR,33.6050,-92.0972,76,Arkansas,R
NTN,AR03,"Caddo Valley",A,1983-12-30,,Clark,AR,34.1795,-93.0992,71,Arkansas,R
NTN,AR16,"Buffalo National River-Buffalo Point",A,1982-07-13,,Marion,AR,36.0842,-92.5868,311,Arkansas,I
NTN,AR27,Fayetteville,A,1980-05-13,,Washington,AR,36.1011,-94.1737,381,Arkansas,S
NTN,AZ03,"Grand Canyon National Park-Hopi Point",A,1981-08-11,,Coconino,AZ,36.0586,-112.1840,2071,Arizona,I
NTN,AZ06,"Organ Pipe Cactus National Monument",A,1980-04-15,,Pima,AZ,31.9492,-112.8020,501,Arizona,I
NTN,AZ97,"Petrified Forest National Park-Rainbow Forest",A,2002-12-03,,Apache,AZ,34.8224,-109.8925,1707,Arizona,I
NTN,AZ98,Chiricahua,A,1999-02-23,,Cochise,AZ,32.0097,-109.3889,1570,Arizona,I
NTN,AZ99,"Oliver Knoll",A,1981-08-25,,Graham,AZ,33.0708,-109.8660,1176,Arizona,I
NTN,BC22,"Haul Road Station",A,2012-09-19,,,BC,54.0294,-128.7019,10,"British Columbia",R
NTN,BC23,"Lakelse Lake",A,2013-03-20,,,BC,54.3772,-128.5775,111,"British Columbia",R
NTN,BC24,"Port Edward",A,2014-01-15,,,BC,54.2226,-130.2696,80,"British Columbia",R
NTN,BM01,"Tudor Hill",A,2022-03-15,,,,32.2647,-64.8789,21,," "
NTN,CA42,"Tanbark Flat",A,1982-01-12,,"Los Angeles",CA,34.2071,-117.7618,853,California,S
NTN,CA45,Hopland,A,1979-10-03,,Mendocino,CA,39.0045,-123.0860,253,California,I
NTN,CA50,"Sagehen Creek",A,2001-11-06,,Nevada,CA,39.4315,-120.2397,1931,California,R
NTN,CA66,"Pinnacles National Park-Bear Valley",A,1999-11-02,,"San Benito",CA,36.4834,-121.1570,317,California,I
NTN,CA67,"Joshua Tree National Park-Black Rock",A,2000-09-19,,"San Bernardino",CA,34.0695,-116.3889,1239,California,R
NTN,CA75,"Sequoia National Park-Giant Forest",A,1980-07-08,,Tulare,CA,36.5661,-118.7780,1921,California,I
NTN,CA76,Montague,A,1985-06-25,,Siskiyou,CA,41.7662,-122.4798,799,California,R
NTN,CA88,Davis,A,1978-09-04,,Yolo,CA,38.5357,-121.7762,18,California,S
NTN,CA94,"Converse Flats",A,2006-05-09,,"San Bernardino",CA,34.1938,-116.9131,1724,California,R
NTN,CA96,"Lassen Volcanic National Park-Manzanita Lake",A,2000-06-13,,Shasta,CA,40.5390,-121.5772,1754,California,I
NTN,CA99,"Yosemite National Park-Hodgdon Meadow",A,1981-12-08,,Tuolumne,CA,37.7961,-119.8581,1393,California,I
NTN,CAN5,Frelighsburg,A,2001-10-02,,Brome,PQ,45.0410,-72.8581,195,Quebec,R
NTN,CO00,Alamosa,A,1980-04-22,,Alamosa,CO,37.4421,-105.8680,2285,Colorado,R
NTN,CO01,"Las Animas Fish Hatchery",A,1983-10-04,,Bent,CO,38.1177,-103.3160,1226,Colorado,I
NTN,CO02,"Niwot Saddle",A,1984-06-05,,Boulder,CO,40.0547,-105.5891,3520,Colorado,I
NTN,CO08,"Four Mile Park",A,1987-12-29,,Garfield,CO,39.4025,-107.3454,2502,Colorado,R
NTN,CO09,"Kawuneechee Meadow",A,2012-07-10,,Grand,CO,40.2603,-105.8292,2633,Colorado,I
NTN,CO10,Gothic,A,1999-02-02,,Gunnison,CO,38.9561,-106.9860,2915,Colorado,I
NTN,CO15,"Sand Spring",A,1979-03-20,,Moffat,CO,40.5077,-107.7025,1998,Colorado,R
NTN,CO19,"Rocky Mountain National Park-Beaver Meadows",A,1980-05-29,,Larimer,CO,40.3639,-105.5810,2477,Colorado,R
NTN,CO21,Manitou,A,1978-10-17,,Teller,CO,39.1008,-105.0933,2362,Colorado,R
NTN,CO22,Pawnee,A,1979-05-22,,Weld,CO,40.8060,-104.7560,1641,Colorado,I
NTN,CO80,"Akron 4E",A,2022-10-25,,Washington,CO,40.1552,-103.1417,1364,Colorado," "
NTN,CO81,"Missile Site Park",A,2020-12-08,,Weld,CO,40.4288,-104.8617,,Colorado," "
NTN,CO82,Orchard,A,2021-01-12,,Weld,CO,40.3199,-104.1598,,Colorado," "
NTN,CO90,"Niwot Ridge-Southeast",A,2006-01-24,,Boulder,CO,40.0367,-105.5440,3015,Colorado,I
NTN,CO91,"Wolf Creek Pass",A,1992-05-26,,Mineral,CO,37.4686,-106.7870,3287,Colorado,I
NTN,CO93,"Buffalo Pass - Dry Lake",A,1986-10-14,,Routt,CO,40.5347,-106.7811,2538,Colorado,R
NTN,CO94,Sugarloaf,A,1986-11-04,,Boulder,CO,39.9939,-105.4800,2524,Colorado,R
NTN,CO96,"Molas Pass",A,1986-07-29,,"San Juan",CO,37.7500,-107.6890,3248,Colorado,I
NTN,CO97,"Buffalo Pass - Summit Lake",A,1984-02-07,,Routt,CO,40.5383,-106.6766,3234,Colorado,R
NTN,CO98,"Rocky Mountain National Park-Loch Vale",A,1983-08-16,,Larimer,CO,40.2878,-105.6628,3159,Colorado,I
NTN,CO99,"Mesa Verde National Park-Chapin Mesa",A,1981-04-28,,Montezuma,CO,37.1979,-108.4910,2162,Colorado,I
NTN,CT15,Abington,A,1999-01-26,,Windham,CT,41.8400,-72.0101,209,Connecticut,R
NTN,FL00,"Austin-Cary Forest",A,1978-10-10,,Alachua,FL,29.7603,-82.1989,46,Florida,R
NTN,FL05,"Chassahowitzka National Wildlife Refuge",A,1996-08-27,2024-03-26,Citrus,FL,28.7486,-82.5551,3,Florida,R
NTN,FL11,"Everglades National Park-Research Center",A,1980-06-17,,Dade,FL,25.3900,-80.6800,2,Florida,I
NTN,FL14,Quincy,A,1984-03-13,,Gadsden,FL,30.5486,-84.6004,60,Florida,R
NTN,FL23,Sumatra,A,1999-01-26,,Liberty,FL,30.1106,-84.9902,14,Florida,I
NTN,FL41,"Verna Well Field",A,1983-08-25,,Sarasota,FL,27.3801,-82.2831,25,Florida,R
NTN,GA09,"Okefenokee National Wildlife Refuge",A,1997-06-03,,Charlton,GA,30.7404,-82.1283,45,Georgia,I
NTN,GA41,"Georgia Station",A,1978-10-03,,Pike,GA,33.1805,-84.4103,267,Georgia,R
NTN,GA99,Chula,A,1994-02-10,,Tift,GA,31.5217,-83.5482,108,Georgia,R
NTN,IA08,"Big Springs Fish Hatchery",A,1984-08-14,,Clayton,IA,42.9097,-91.4700,229,Iowa,I
NTN,IA23,"McNay Research Center",A,1984-09-11,,Lucas,IA,40.9631,-93.3925,320,Iowa,R
NTN,ID02,"Priest River Experimental Forest",A,2002-12-31,,Bonner,ID,48.3518,-116.8397,726,Idaho,I
NTN,ID03,"Craters of the Moon National Monument",A,1980-08-22,,Butte,ID,43.4605,-113.5551,1807,Idaho,I
NTN,ID11,"Reynolds Creek",A,1983-11-22,,Owyhee,ID,43.2049,-116.7500,1200,Idaho,I
NTN,IL11,Bondville,A,1979-02-27,,Champaign,IL,40.0528,-88.3719,212,Illinois,S
NTN,IL78,Monmouth,A,1985-01-08,,Warren,IL,40.9153,-90.6270,229,Illinois," "
NTN,IN20,"Roush Lake",A,1983-08-22,,Huntington,IN,40.8401,-85.4639,244,Indiana,R
NTN,IN22,"Southwest Purdue Agriculture Center",A,1984-09-25,,Knox,IN,38.7408,-87.4855,134,Indiana,R
NTN,IN34,"Indiana Dunes National Lakeshore",A,1980-07-15,,Porter,IN,41.6318,-87.0881,208,Indiana,S
NTN,IN41,"Agronomy Center for Research and Extension",A,1982-07-13,,Tippecanoe,IN,40.4749,-86.9924,215,Indiana,S
NTN,KS07,"Farlington Fish Hatchery",A,1984-03-27,,Crawford,KS,37.6511,-94.8036,281,Kansas,I
NTN,KS31,"Konza Prairie",A,1982-08-17,,Riley,KS,39.1022,-96.6092,350,Kansas,R
NTN,KS32,"Lake Scott State Park",A,1984-03-27,,Scott,KS,38.6717,-100.9164,863,Kansas,I
NTN,KY03,Mackville,A,1983-11-29,,Washington,KY,37.7047,-85.0489,293,Kentucky,R
NTN,KY10,"Mammoth Cave National Park-Houchin Meadow",A,2002-08-27,,Edmonson,KY,37.1317,-86.1480,236,Kentucky,R
NTN,KY19,"Cannons Lane",A,2003-10-07,,Jefferson,KY,38.2288,-85.6545,177,Kentucky,U
NTN,KY22,"Lilley Cornett Woods",A,1983-09-06,,Letcher,KY,37.0778,-82.9936,335,Kentucky,R
NTN,KY35,"Clark State Fish Hatchery",A,1983-08-30,,Rowan,KY,38.1183,-83.5469,204,Kentucky,R
NTN,LA12,"Iberia Research Station",A,1982-11-16,,Iberia,LA,29.9310,-91.7165,6,Louisiana,R
NTN,LA30,"Southeast Research Station",A,1983-01-18,,Washington,LA,30.7819,-90.2021,77,Louisiana,R
NTN,MA01,"North Atlantic Coastal Lab",A,1981-12-15,,Barnstable,MA,41.9759,-70.0241,57,Massachusetts,R
NTN,MA08,"Quabbin Reservoir",A,1982-03-05,,Franklin,MA,42.3925,-72.3444,306,Massachusetts,R
NTN,MA14,Nantucket,A,2014-03-04,,Nantucket,MA,41.2897,-70.1751,16,Massachusetts,R
NTN,MA22,"Boston University",A,2015-06-16,,Suffolk,MA,42.3501,-71.1044,32,Massachusetts,U
NTN,MA98,"Arnold Arboretum",A,2016-02-09,,Suffolk,MA,42.2953,-71.1340,48,Massachusetts,U
NTN,MD08,"Piney Reservoir",A,2004-06-29,,Garrett,MD,39.7053,-79.0122,769,Maryland,R
NTN,MD13,Wye,A,1983-03-08,,"Queen Annes",MD,38.9131,-76.1525,6,Maryland,R
NTN,MD15,"Smith Island",A,2004-06-01,,Somerset,MD,37.9925,-76.0345,2,Maryland,I
NTN,MD18,"Assateague Island National Seashore-Woodcock",A,2000-09-05,,Worcester,MD,38.2510,-75.1593,0,Maryland,R
NTN,MD99,Beltsville,A,2004-06-01,,"Prince Georges",MD,39.0280,-76.8171,46,Maryland,U
NTN,ME00,Caribou,A,1980-04-14,,Aroostook,ME,46.8675,-68.0134,191,Maine,R
NTN,ME02,Bridgton,A,1980-09-30,,Cumberland,ME,44.1075,-70.7289,222,Maine,R
NTN,ME04,"Carrabassett Valley",A,2002-03-12,,Franklin,ME,45.0803,-70.2118,259,Maine,I
NTN,ME08,Gilead,A,1999-09-28,,Oxford,ME,44.4003,-71.0098,212,Maine,I
NTN,ME09,"Greenville Station",A,1979-11-20,,Piscataquis,ME,45.4891,-69.6647,322,Maine,R
NTN,ME94,"Indian Township",A,2013-10-03,,Washington,ME,45.2436,-67.6308,101,Maine,I
NTN,ME96,"Casco Bay-Wolfe's Neck Farm",A,1998-01-06,,Cumberland,ME,43.8325,-70.0645,15,Maine,R
NTN,ME98,"Acadia National Park-McFarland Hill",A,1981-11-10,,Hancock,ME,44.3772,-68.2608,150,Maine,R
NTN,MI09,"Douglas Lake",A,1979-07-03,,Cheboygan,MI,45.5608,-84.6783,238,Michigan,R
NTN,MI26,"Kellogg Biological Station",A,1979-06-26,,Kalamazoo,MI,42.4103,-85.3928,288,Michigan,R
NTN,MI48,"Seney National Wildlife Refuge-Headquarters",A,2000-11-28,,Schoolcraft,MI,46.2889,-85.9504,220,Michigan,I
NTN,MI51,Unionville,A,1999-01-26,,Tuscola,MI,43.6135,-83.3599,201,Michigan,R
NTN,MI53,Wellston,A,1978-10-10,,Wexford,MI,44.2242,-85.8186,292,Michigan,I
NTN,MI94,Riverside,A,2021-11-16,,Chippewa,MI,46.4640,-84.3030,307,Michigan," "
NTN,MI99,Chassell,A,1983-02-15,,Houghton,MI,47.1046,-88.5516,296,Michigan,R
NTN,MN01,"Cedar Creek",A,1996-12-31,,Anoka,MN,45.4017,-93.2031,280,Minnesota,R
NTN,MN08,Hovland,A,1996-12-31,,Cook,MN,47.8471,-89.9650,224,Minnesota,I
NTN,MN16,"Marcell Experimental Forest",A,1978-07-06,,Itasca,MN,47.5311,-93.4686,431,Minnesota,I
NTN,MN18,Fernberg,A,1980-11-18,,Lake,MN,47.9464,-91.4961,524,Minnesota,I
NTN,MN23,"Camp Ripley",A,1983-10-18,,Morrison,MN,46.2494,-94.4972,410,Minnesota,I
NTN,MN27,Lamberton,A,1979-01-02,,Redwood,MN,44.2370,-95.3011,367,Minnesota,I
NTN,MN28,"Grindstone Lake",A,1996-12-31,,Pine,MN,46.1217,-93.0001,350,Minnesota,R
NTN,MN32,"Voyageurs National Park-Sullivan Bay",A,2000-05-30,,"St. Louis",MN,48.4132,-92.8305,421,Minnesota,I
NTN,MN99,"Wolf Ridge",A,1996-12-31,,Lake,MN,47.3841,-91.2067,361,Minnesota,I
NTN,MO03,"Ashland Wildlife Area",A,1981-10-20,,Boone,MO,38.7540,-92.1994,257,Missouri,R
NTN,MO46,"Mingo National Wildlife Refuge",A,2022-06-28,,Stoddard,MO,36.9716,-90.1433,105,Missouri,I
NTN,MS10,Clinton,A,1984-07-10,,Hinds,MS,32.3069,-90.3186,86,Mississippi,S
NTN,MS12,"Grand Bay NERR",A,2010-03-09,,Jackson,MS,30.4294,-88.4277,2,Mississippi,R
NTN,MS30,Coffeeville,A,1984-07-17,,Yalobusha,MS,34.0025,-89.7993,134,Mississippi,I
NTN,MS98,Chunky,A,2022-10-18,,Newton,MS,32.3357,-88.9653,,Mississippi," "
NTN,MT00,"Little Bighorn Battlefield National Monument",A,1984-07-13,,"Big Horn",MT,45.5701,-107.4380,962,Montana,I
NTN,MT05,"Glacier National Park-Fire Weather Station",A,1980-06-03,,Flathead,MT,48.5102,-113.9970,964,Montana,I
NTN,MT07,Clancy,A,1984-01-24,,Jefferson,MT,46.4850,-112.0647,1448,Montana,R
NTN,MT96,"Poplar River",A,1999-12-21,,Roosevelt,MT,48.3149,-105.1440,640,Montana,I
NTN,MT97,"Lost Trail Pass",A,1990-09-25,,Ravalli,MT,45.6920,-113.9680,2401,Montana,I
NTN,MT98,"Havre - Northern Agricultural Research Center",A,1985-07-30,,Hill,MT,48.5007,-109.7980,819,Montana,R
NTN,NC03,Lewiston,A,1978-10-31,,Bertie,NC,36.1325,-77.1708,22,"North Carolina",I
NTN,NC06,Beaufort,A,1999-01-26,,Carteret,NC,34.8846,-76.6207,2,"North Carolina",R
NTN,NC25,Coweeta,A,1978-07-05,,Macon,NC,35.0605,-83.4305,686,"North Carolina",R
NTN,NC29,"Hofmann Forest",A,2002-07-02,,Onslow,NC,34.8250,-77.3228,14,"North Carolina",S
NTN,NC30,"Duke Forest",A,2020-03-03,,Orange,NC,35.9709,-79.0933,174,"North Carolina",S
NTN,NC34,"Piedmont Research Station",A,1978-10-17,,Rowan,NC,35.6970,-80.6225,219,"North Carolina",R
NTN,NC35,"Clinton Crops Research Station",A,1978-10-24,,Sampson,NC,35.0258,-78.2783,41,"North Carolina",R
NTN,NC36,"Jordan Creek",A,1983-10-18,,Scotland,NC,34.9705,-79.5281,132,"North Carolina",R
NTN,NC41,"Finley Farm",A,1978-10-03,,Wake,NC,35.7283,-78.6789,120,"North Carolina",U
NTN,NC45,"Mt. Mitchell",A,1985-11-26,,Yancey,NC,35.7353,-82.2861,1987,"North Carolina",R
NTN,ND00,"Theodore Roosevelt National Park-Painted Canyon",A,2001-01-30,,Billings,ND,46.8951,-103.3780,863,"North Dakota",I
NTN,ND08,"Icelandic State Park",A,1983-10-25,,Pembina,ND,48.7820,-97.7546,306,"North Dakota",I
NTN,ND11,Woodworth,A,1983-11-29,,Stutsman,ND,47.1247,-99.2381,578,"North Dakota",I
NTN,NE15,Mead,A,1978-07-25,,Saunders,NE,41.1528,-96.4912,352,Nebraska,R
NTN,NE99,"North Platte Agricultural Experiment Station",A,1985-09-24,,Lincoln,NE,41.0592,-100.7464,919,Nebraska,R
NTN,NH02,"Hubbard Brook",A,1978-07-25,,Grafton,NH,43.9433,-71.7029,250,"New Hampshire",R
NTN,NJ00,"Edwin B. Forsythe National Wildlife Refuge",A,1998-10-13,,Atlantic,NJ,39.4728,-74.4369,2,"New Jersey",S
NTN,NJ39,"Cattus Island County Park",A,2012-12-04,,Ocean,NJ,39.9894,-74.1344,1,"New Jersey",U
NTN,NJ99,"Washington Crossing",A,1981-08-04,,Mercer,NJ,40.3154,-74.8536,72,"New Jersey",U
NTN,NM07,"Bandelier National Monument",A,1982-06-22,,"Los Alamos",NM,35.7788,-106.2660,1997,"New Mexico",R
NTN,NM08,Mayhill,A,1984-01-24,,Otero,NM,32.9096,-105.4710,2022,"New Mexico",I
NTN,NV03,"Smith Valley",A,1985-08-07,,Lyon,NV,38.7992,-119.2567,1501,Nevada,I
NTN,NV05,"Great Basin National Park-Lehman Caves",A,1985-01-15,,"White Pine",NV,39.0054,-114.2170,2066,Nevada,I
NTN,NY01,Alfred,A,2004-08-17,,Allegany,NY,42.2276,-77.8016,697,"New York",R
NTN,NY06,Bronx,A,2013-01-22,,Bronx,NY,40.8680,-73.8782,68,"New York",U
NTN,NY08,"Aurora Research Farm",A,1979-04-17,,Cayuga,NY,42.7339,-76.6597,249,"New York",R
NTN,NY10,Chautauqua,A,1980-06-10,,Chautauqua,NY,42.2994,-79.3964,488,"New York",R
NTN,NY20,"Huntington Wildlife",A,1978-10-31,,Essex,NY,43.9731,-74.2231,500,"New York",I
NTN,NY22,"Akwesasne Mohawk-Fort Covington",A,1999-08-18,,Franklin,NY,44.9226,-74.4806,70,"New York",R
NTN,NY28,"Piseco Lake",A,2012-12-31,,Hamilton,NY,43.4336,-74.5002,519,"New York",I
NTN,NY43,Rochester,A,2013-04-30,,Monroe,NY,43.1463,-77.5482,136,"New York",U
NTN,NY52,"Bennett Bridge",A,1980-06-10,,Oswego,NY,43.5282,-75.9492,247,"New York",R
NTN,NY67,Ithaca,A,2018-01-02,,Tompkins,NY,42.4014,-76.6589,503,"New York",R
NTN,NY68,"Biscuit Brook",A,1983-10-11,,Ulster,NY,41.9936,-74.5031,634,"New York",I
NTN,NY92,Amherst,A,2013-10-29,,Erie,NY,42.9931,-78.7717,183,"New York",U
NTN,NY93,"Paul Smith's",A,2013-01-01,2023-12-31,Franklin,NY,44.4340,-74.2460,498,"New York",R
NTN,NY94,"Nick's Lake",A,2015-11-03,,Herkimer,NY,43.6833,-74.9833,525,"New York",I
NTN,NY96,"Cedar Beach-Southold",A,2003-11-25,,Suffolk,NY,41.0347,-72.3891,1,"New York",R
NTN,NY98,"Whiteface Mountain",A,1984-07-03,,Essex,NY,44.3933,-73.8594,610,"New York",I
NTN,NY99,"West Point",A,1983-09-13,,Orange,NY,41.3511,-74.0484,211,"New York",S
NTN,OH09,Oxford,A,1984-08-14,,Butler,OH,39.5309,-84.7238,284,Ohio,R
NTN,OH17,Delaware,A,1978-10-03,,Delaware,OH,40.3555,-83.0661,285,Ohio,R
NTN,OH49,Caldwell,A,1978-09-26,,Noble,OH,39.7928,-81.5311,276,Ohio,R
NTN,OH71,Wooster,A,1978-09-26,,Wayne,OH,40.7813,-81.9197,308,Ohio,R
NTN,OK00,"Salt Plains National Wildlife Refuge",A,1983-12-13,,Alfalfa,OK,36.7863,-98.1800,344,Oklahoma,I
NTN,OK01,"McGee Creek",A,2023-03-14,,Atoka,OK,34.3154,-95.8893,195,Oklahoma,I
NTN,OK29,"Goodwell Research Station",A,1985-01-08,,Texas,OK,36.5908,-101.6175,999,Oklahoma,I
NTN,OR07,"Burns Sagebrush",A,2021-08-03,,Harney,OR,43.4712,-119.6909,1398,Oregon,I
NTN,OR10,"H. J. Andrews Experimental Forest",A,1980-05-13,,Lane,OR,44.2118,-122.2560,443,Oregon,I
NTN,OR18,"Starkey Experimental Forest",A,1984-03-06,,Union,OR,45.2247,-118.5130,1254,Oregon,I
NTN,OR97,"Hyslop Farm",A,1983-04-26,,Benton,OR,44.6347,-123.1900,69,Oregon,S
NTN,PA00,Arendtsville,A,1999-01-26,,Adams,PA,39.9231,-77.3078,269,Pennsylvania,R
NTN,PA13,"Allegheny Portage Railroad National Historic Site",A,2011-07-26,,Cambria,PA,40.4570,-78.5600,739,Pennsylvania,S
NTN,PA15,"Penn State",A,1983-06-07,,Centre,PA,40.7883,-77.9458,393,Pennsylvania,S
NTN,PA18,"Young Woman's Creek",A,1999-04-20,,Clinton,PA,41.4142,-77.6799,272,Pennsylvania,I
NTN,PA29,"Kane Experimental Forest",A,1978-07-18,,Elk,PA,41.5978,-78.7675,618,Pennsylvania,R
NTN,PA42,"Leading Ridge",A,1979-04-25,,Huntingdon,PA,40.6575,-77.9397,287,Pennsylvania,R
NTN,PA72,Milford,A,1983-12-27,,Pike,PA,41.3273,-74.8199,212,Pennsylvania,R
NTN,PR20,"El Verde",A,1985-02-12,,"Rio Grande",PR,18.3206,-65.8200,380,"Puerto Rico"," "
NTN,SC03,"Savannah River",A,2011-12-13,,Barnwell,SC,33.2450,-81.6505,90,"South Carolina",I
NTN,SC05,"Cape Romain National Wildlife Refuge",A,2000-11-21,,Charleston,SC,32.9430,-79.6592,1,"South Carolina",R
NTN,SC06,"Santee National Wildlife Refuge",A,1984-07-19,,Clarendon,SC,33.5394,-80.4350,24,"South Carolina",R
NTN,SD04,"Wind Cave National Park-Elk Mountain",A,2002-11-05,,Custer,SD,43.5577,-103.4840,1292,"South Dakota",I
NTN,SD08,Cottonwood,A,1983-10-11,,Jackson,SD,43.9461,-101.8552,733,"South Dakota",I
NTN,SD99,"Huron Well Field",A,1983-11-29,,Beadle,SD,44.3550,-98.2917,398,"South Dakota",R
NTN,SK20,"Cactus Lake",A,2012-02-14,,,SK,52.0229,-109.8615,784,Saskatchewan,I
NTN,SK31,"Fox Valley",A,2016-06-14,,,SK,50.4606,-109.4622,718,Saskatchewan,I
NTN,TN00,"UT Forest Research Station",A,1980-03-11,,Anderson,TN,35.9980,-84.2194,310,Tennessee,S
NTN,TN04,Speedwell,A,1999-01-26,,Claiborne,TN,36.4698,-83.8272,384,Tennessee,R
NTN,TN11,"Great Smoky Mountains National Park-Elkmont",A,1980-08-12,,Sevier,TN,35.6645,-83.5903,640,Tennessee,R
NTN,TN14,"Hatchie National Wildlife Refuge",A,1984-10-02,,Haywood,TN,35.4988,-89.2611,117,Tennessee,R
NTN,TX03,Beeville,A,1984-02-07,,Bee,TX,28.4667,-97.7069,82,Texas,R
NTN,TX04,"Big Bend National Park - K-Bar",A,1980-04-10,,Brewster,TX,29.3025,-103.1781,1056,Texas,I
NTN,TX10,"Attwater Prairie Chicken National Wildlife Refuge",A,1984-07-03,,Colorado,TX,29.6614,-96.2594,54,Texas,R
NTN,TX16,Sonora,A,1984-06-26,,Edwards,TX,30.2613,-100.5551,696,Texas,I
NTN,TX22,"Guadalupe Mountains National Park Frijole Ranger Station",A,1984-06-05,,Culberson,TX,31.9069,-104.8050,1705,Texas,I
NTN,TX41,Alabama-Coushatta,A,2022-03-01,,Polk,TX,30.7015,-94.6740,105,Texas,I
NTN,TX43,Ca��nceta,A,2007-07-24,,Randall,TX,34.8800,-101.6650,1057,Texas,I
NTN,TX56,"L.B.J. National Grasslands",A,1983-09-20,,Wise,TX,33.3917,-97.6397,312,Texas,I
NTN,UT01,Logan,A,1983-12-06,,Cache,UT,41.6661,-111.8914,1370,Utah,S
NTN,UT09,"Canyonlands National Park-Island in the Sky",A,1997-11-11,,"San Juan",UT,38.4584,-109.8210,1797,Utah,I
NTN,UT95,"East McKee",A,2017-12-05,,Daggett,UT,40.7543,-109.4671,2569,Utah," "
NTN,UT98,"Green River",A,1985-04-25,,Emery,UT,39.0001,-110.1740,1256,Utah,I
NTN,UT99,"Bryce Canyon National Park-Repeater Hill",A,1985-01-29,,Garfield,UT,37.6186,-112.1728,2477,Utah,I
NTN,VA00,Charlottesville,A,1984-10-02,,Albemarle,VA,38.0402,-78.5427,172,Virginia,S
NTN,VA13,"Blue Grass Trail",A,1978-07-25,,Giles,VA,37.3232,-80.4572,652,Virginia,R
NTN,VA24,"Prince Edward",A,1999-01-26,,"Prince Edward",VA,37.1652,-78.3073,150,Virginia,R
NTN,VA28,"Shenandoah National Park-Big Meadows",A,1981-05-12,,Madison,VA,38.5231,-78.4348,1072,Virginia,R
NTN,VA99,"Natural Bridge Station",A,2002-07-02,,Rockbridge,VA,37.6265,-79.5126,282,Virginia,R
NTN,VI01,"Virgin Islands National Park-Lind Point",A,1998-04-14,,"St. John",VI,18.3362,-64.7962,56,"Virgin Islands"," "
NTN,VT01,Bennington,A,1981-04-28,,Bennington,VT,42.8761,-73.1633,305,Vermont,R
NTN,VT99,Underhill,A,1984-06-12,,Chittenden,VT,44.5283,-72.8684,399,Vermont,R
NTN,WA04,"Confederated Tribes of the Umatilla Indian Reservation",A,2022-12-27,,Columbia,WA,46.2026,-117.9539,,Washington," "
NTN,WA14,"Olympic National Park-Hoh Ranger Station",A,1980-05-20,,Jefferson,WA,47.8597,-123.9325,182,Washington,I
NTN,WA19,"North Cascades National Park-Marblemount Ranger Station",A,1984-02-07,,Skagit,WA,48.5403,-121.4460,124,Washington,I
NTN,WA21,"La Grande",A,1984-04-24,,Pierce,WA,46.8353,-122.2867,617,Washington,R
NTN,WA24,"Palouse Conservation Farm",A,1985-08-20,,Whitman,WA,46.7606,-117.1847,766,Washington,R
NTN,WA98,"Columbia River Gorge",A,2002-05-07,,Skamania,WA,45.5694,-122.2100,233,Washington,R
NTN,WA99,"Mount Rainier National Park-Tahoma Woods",A,1999-10-26,,Pierce,WA,46.7582,-122.1243,424,Washington,I
NTN,WI06,"UW Arboretum",A,2019-02-11,,Dane,WI,43.0410,-89.4280,265,Wisconsin,U
NTN,WI10,Potawatomi,A,2005-06-07,,Forest,WI,45.5648,-88.8083,570,Wisconsin,I
NTN,WI31,"Devil's Lake",A,2014-01-07,,Sauk,WI,43.4352,-89.6801,389,Wisconsin,R
NTN,WI35,Perkinstown,A,1999-01-26,,Taylor,WI,45.2064,-90.5978,472,Wisconsin,I
NTN,WI36,"Trout Lake",A,1980-01-22,,Vilas,WI,46.0512,-89.6541,509,Wisconsin,I
NTN,WI37,Spooner,A,1980-06-03,,Washburn,WI,45.8228,-91.8744,331,Wisconsin,R
NTN,WI92,"Chequamegon Bay",A,2022-11-08,,Bayfield,WI,46.5830,-90.9676,,Wisconsin," "
NTN,WV04,"Babcock State Park",A,1983-09-06,,Fayette,WV,37.9796,-80.9525,753,"West Virginia",R
NTN,WV18,Parsons,A,1978-07-05,,Tucker,WV,39.0897,-79.6622,505,"West Virginia",I
NTN,WY00,"Snowy Range",A,1986-04-22,,Albany,WY,41.3762,-106.2600,3269,Wyoming,I
NTN,WY02,"Sinks Canyon",A,1984-08-21,,Fremont,WY,42.7336,-108.8498,2164,Wyoming,I
NTN,WY06,Pinedale,A,1982-01-26,,Sublette,WY,42.9290,-109.7875,2388,Wyoming,I
NTN,WY08,"Yellowstone National Park-Tower Falls",A,1980-06-05,,Park,WY,44.9166,-110.4203,1912,Wyoming,I
NTN,WY94,"Grand Tetons National Park",A,2011-09-27,,Teton,WY,43.8333,-110.7008,2105,Wyoming,I
NTN,WY95,"Brooklyn Lake",A,1992-09-22,,Albany,WY,41.3647,-106.2408,3181,Wyoming,I
NTN,WY97,"South Pass City",A,1985-04-30,,Fremont,WY,42.4944,-108.8320,2524,Wyoming,I
NTN,WY98,"Gypsum Creek",A,1984-12-26,,Sublette,WY,43.2227,-109.9917,2428,Wyoming,I
NTN,WY99,Newcastle,A,1981-08-11,,Weston,WY,43.8730,-104.1917,1466,Wyoming,I
